NORAD_CAT_ID,OBJECT_NAME,OBJECT_TYPE,EPOCH,MEAN_MOTION,ECCENTRICITY,INCLINATION,RA_OF_ASC_NODE,ARG_OF_PERICENTER,MEAN_ANOMALY,BSTAR,MEAN_MOTION_DOT,MEAN_MOTION_DDOT,TLE_LINE0,TLE_LINE1,TLE_LINE2,SEMIMAJOR_AXIS,PERIOD,APOGEE,PERIGEE,DECAYED
53289.0,STARLINK-4176,PAYLOAD,2023-04-07 05:39:24,15.08850549,3.74e-05,53.2157,291.2507,136.1888,223.9134,0.00031062,4.661e-05,0.0,0 STARLINK-4176,1 53289U 22086AZ  23097.23570470  .00004661  00000-0  31062-3 0  9996,2 53289  53.2157 291.2507 0000374 136.1888 223.9134 15.08850549 39941,6917.848,95.437,539.972,539.454,0.0
53289.0,STARLINK-4176,PAYLOAD,2023-04-07 13:36:21,15.08848502,0.0001767,53.2161,289.7675,111.6075,248.5105,0.00026724,3.969e-05,0.0,0 STARLINK-4176,1 53289U 22086AZ  23097.56691003  .00003969  00000-0  26724-3 0  9997,2 53289  53.2161 289.7675 0001767 111.6075 248.5105 15.08848502 40159,6917.854,95.437,540.942,538.497,0.0
53289.0,STARLINK-4176,PAYLOAD,2023-04-07 19:57:53,15.08845022,0.000154,53.2161,288.5761,107.5308,252.5853,0.00012056,1.631e-05,0.0,0 STARLINK-4176,1 53289U 22086AZ  23097.83186958  .00001631  00000-0  12056-3 0  9992,2 53289  53.2161 288.5761 0001540 107.5308 252.5853 15.08845022 40030,6917.865,95.437,540.795,538.665,0.0
53289.0,STARLINK-4176,PAYLOAD,2023-04-08 11:51:44,15.08835003,0.0001137,53.2178,285.6035,226.8652,133.2245,0.00020993,3.054e-05,0.0,0 STARLINK-4176,1 53289U 22086AZ  23098.49426785  .00003054  00000-0  20993-3 0  9990,2 53289  53.2178 285.6035 0001137 226.8652 133.2245 15.08835003 40138,6917.896,95.438,540.547,538.974,0.0
53289.0,STARLINK-4176,PAYLOAD,2023-04-09 13:17:55,15.08835714,9.31e-05,53.217,280.8437,97.7207,262.3891,5.6327e-05,6.09e-06,0.0,0 STARLINK-4176,1 53289U 22086AZ  23099.55411677  .00000609  00000-0  56327-4 0  9996,2 53289  53.2170 280.8437 0000931  97.7207 262.3891 15.08835714 40292,6917.893,95.438,540.403,539.114,0.0
53289.0,STARLINK-4176,PAYLOAD,2023-04-09 18:04:04,15.08842318,0.0001122,53.2172,279.9507,92.798,267.3141,0.00016557,2.348e-05,0.0,0 STARLINK-4176,1 53289U 22086AZ  23099.75283419  .00002348  00000-0  16557-3 0  9991,2 53289  53.2172 279.9507 0001122  92.7980 267.3141 15.08842318 40489,6917.873,95.437,540.514,538.962,0.0
53289.0,STARLINK-4176,PAYLOAD,2023-04-10 11:33:19,15.08841073,9.75e-05,53.2158,276.6783,83.5485,276.5618,0.00012101,1.639e-05,0.0,0 STARLINK-4176,1 53289U 22086AZ  23100.48147605  .00001639  00000-0  12101-3 0  9993,2 53289  53.2158 276.6783 0000975  83.5485 276.5618 15.08841073 40596,6917.877,95.437,540.417,539.068,0.0
53289.0,STARLINK-4176,PAYLOAD,2023-04-10 17:54:51,15.08846885,0.0001086,53.2163,275.4902,75.8202,284.2911,0.00020112,2.915e-05,0.0,0 STARLINK-4176,1 53289U 22086AZ  23100.74643363  .00002915  00000-0  20112-3 0  9993,2 53289  53.2163 275.4902 0001086  75.8202 284.2911 15.08846885 40472,6917.859,95.437,540.476,538.973,0.0
53289.0,STARLINK-4176,PAYLOAD,2023-04-11 11:24:06,15.08839454,0.000147,53.2176,272.2199,76.1434,283.9722,8.0461e-05,9.93e-06,0.0,0 STARLINK-4176,1 53289U 22086AZ  23101.47507766  .00000993  00000-0  80461-4 0  9998,2 53289  53.2176 272.2199 0001470  76.1434 283.9722 15.08839454 40589,6917.882,95.438,540.764,538.73,0.0
53289.0,STARLINK-4176,PAYLOAD,2023-04-11 17:45:39,15.08840333,0.00013,53.214,271.0315,71.8015,288.3118,0.00010634,1.405e-05,0.0,0 STARLINK-4176,1 53289U 22086AZ  23101.74003686  .00001405  00000-0  10634-3 0  9993,2 53289  53.2140 271.0315 0001300  71.8015 288.3118 15.08840333 40784,6917.879,95.438,540.644,538.845,0.0
53289.0,STARLINK-4176,PAYLOAD,2023-04-12 11:14:53,15.08842503,0.0001711,53.212,267.7583,75.0757,285.0424,7.5179e-06,-1.68e-06,0.0,0 STARLINK-4176,1 53289U 22086AZ  23102.46867611 -.00000168  00000-0  75179-5 0  9992,2 53289  53.2120 267.7583 0001711  75.0757 285.0424 15.08842503 40893,6917.873,95.437,540.921,538.554,0.0
53289.0,STARLINK-4176,PAYLOAD,2023-04-13 09:30:17,15.08843112,0.0001752,53.2112,263.5956,85.5841,274.5351,0.00011935,1.612e-05,0.0,0 STARLINK-4176,1 53289U 22086AZ  23103.39603405  .00001612  00000-0  11935-3 0  9996,2 53289  53.2112 263.5956 0001752  85.5841 274.5351 15.08843112 41033,6917.871,95.437,540.948,538.524,0.0
53289.0,STARLINK-4176,PAYLOAD,2023-04-14 10:56:28,15.08837095,6.07e-05,53.2189,258.8376,78.3607,281.7454,-9.1649e-06,-4.33e-06,0.0,0 STARLINK-4176,1 53289U 22086AZ  23104.45588145 -.00000433  00000-0 -91649-5 0  9991,2 53289  53.2189 258.8376 0000607  78.3607 281.7454 15.08837095 41192,6917.889,95.438,540.174,539.334,0.0
53289.0,STARLINK-4176,PAYLOAD,2023-04-15 02:50:19,15.08836581,3.82e-05,53.2153,255.8642,194.51,165.5881,-0.0001104,-2.044e-05,0.0,0 STARLINK-4176,1 53289U 22086AZ  23105.11827576 -.00002044  00000-0 -11040-3 0  9994,2 53289  53.2153 255.8642 0000382 194.5100 165.5881 15.08836581 41131,6917.891,95.438,540.02,539.492,0.0
53289.0,STARLINK-4176,PAYLOAD,2023-04-15 13:58:01,15.08841033,5.95e-05,53.2161,253.7811,97.3723,262.7337,6.134e-05,6.89e-06,0.0,0 STARLINK-4176,1 53289U 22086AZ  23105.58195890  .00000689  00000-0  61340-4 0  9992,2 53289  53.2161 253.7811 0000595  97.3723 262.7337 15.08841033 41361,6917.877,95.437,540.154,539.331,0.0
53289.0,STARLINK-4176,PAYLOAD,2023-04-15 18:44:10,15.0884858,8.52e-05,53.2162,252.889,96.6915,263.4174,0.00028201,4.204e-05,0.0,0 STARLINK-4176,1 53289U 22086AZ  23105.78067596  .00004204  00000-0  28201-3 0  9990,2 53289  53.2162 252.8890 0000852  96.6915 263.4174 15.08848580 41237,6917.854,95.437,540.309,539.13,0.0
53289.0,STARLINK-4176,PAYLOAD,2023-04-16 13:48:48,15.08845591,9.5e-05,53.2186,249.3224,102.2726,257.8372,0.00012372,1.682e-05,0.0,0 STARLINK-4176,1 53289U 22086AZ  23106.57555762  .00001682  00000-0  12372-3 0  9994,2 53289  53.2186 249.3224 0000950 102.2726 257.8372 15.08845591 41515,6917.863,95.437,540.385,539.071,0.0
53289.0,STARLINK-4176,PAYLOAD,2023-04-16 18:34:57,15.0885426,8.35e-05,53.2161,248.4277,97.3813,262.7274,0.00024226,3.571e-05,0.0,0 STARLINK-4176,1 53289U 22086AZ  23106.77427236  .00003571  00000-0  24226-3 0  9990,2 53289  53.2161 248.4277 0000835  97.3813 262.7274 15.08854260 41541,6917.837,95.437,540.279,539.124,0.0
53289.0,STARLINK-4176,PAYLOAD,2023-04-17 13:39:35,15.08840607,0.0001095,53.216,244.8605,92.1531,267.9587,6.8154e-05,7.97e-06,0.0,0 STARLINK-4176,1 53289U 22086AZ  23107.56915811  .00000797  00000-0  68154-4 0  9995,2 53289  53.2160 244.8605 0001095  92.1531 267.9587 15.08840607 41661,6917.879,95.438,540.501,538.986,0.0
53289.0,STARLINK-4176,PAYLOAD,2023-04-17 18:25:44,15.08850876,9.86e-05,53.2158,243.9679,84.5841,275.5264,0.00017154,2.444e-05,0.0,0 STARLINK-4176,1 53289U 22086AZ  23107.76787391  .00002444  00000-0  17154-3 0  9991,2 53289  53.2158 243.9679 0000986  84.5841 275.5264 15.08850876 41695,6917.847,95.437,540.394,539.03,0.0
53289.0,STARLINK-4176,PAYLOAD,2023-04-18 08:44:13,15.08837699,0.0001079,53.216,241.294,90.8306,269.281,1.121e-05,-1.09e-06,0.0,0 STARLINK-4176,1 53289U 22086AZ  23108.36403953 -.00000109  00000-0  11210-4 0  9992,2 53289  53.2160 241.2940 0001079  90.8306 269.2810 15.08837699 41628,6917.887,95.438,540.499,539.006,0.0
53289.0,STARLINK-4176,PAYLOAD,2023-04-18 15:05:45,15.08839522,8.59e-05,53.2165,240.1041,78.913,281.1959,2.7626e-05,1.52e-06,0.0,0 STARLINK-4176,1 53289U 22086AZ  23108.62899911  .00000152  00000-0  27626-4 0  9999,2 53289  53.2165 240.1041 0000859  78.9130 281.1959 15.08839522 41826,6917.882,95.438,540.341,539.153,0.0
53289.0,STARLINK-4176,PAYLOAD,2023-04-19 08:35:00,15.08835764,0.0001162,53.2164,236.8346,60.5374,299.5734,7.5104e-05,9.08e-06,0.0,0 STARLINK-4176,1 53289U 22086AZ  23109.35764351  .00000908  00000-0  75104-4 0  9992,2 53289  53.2164 236.8346 0001162  60.5374 299.5734 15.08835764 41930,6917.893,95.438,540.562,538.954,0.0
53289.0,STARLINK-4176,PAYLOAD,2023-04-19 19:42:41,15.08861123,9.94e-05,53.2164,234.7496,76.3951,283.7151,0.00068979,0.00010713,0.0,0 STARLINK-4176,1 53289U 22086AZ  23109.82131390  .00010713  00000-0  68979-3 0  9991,2 53289  53.2164 234.7496 0000994  76.3951 283.7151 15.08861123 42006,6917.816,95.436,540.368,538.993,0.0
53289.0,STARLINK-4176,PAYLOAD,2023-04-20 08:25:46,15.08859212,9.08e-05,53.2161,232.3696,87.9693,272.1403,0.00051655,7.947e-05,0.0,0 STARLINK-4176,1 53289U 22086AZ  23110.35123109  .00007947  00000-0  51655-3 0  9998,2 53289  53.2161 232.3696 0000908  87.9693 272.1403 15.08859212 42081,6917.822,95.436,540.315,539.059,0.0
53289.0,STARLINK-4176,PAYLOAD,2023-04-20 13:11:56,15.08808016,9.91e-05,53.2159,231.4772,75.3798,284.7304,-0.0014006,-0.00022489,0.0,0 STARLINK-4176,1 53289U 22086AZ  23110.54995807 -.00022489  00000-0 -14006-2 0  9999,2 53289  53.2159 231.4772 0000991  75.3798 284.7304 15.08808016 41952,6917.978,95.44,540.529,539.158,0.0
53289.0,STARLINK-4176,PAYLOAD,2023-04-20 19:33:29,15.08810027,0.0001393,53.2168,230.2856,108.7097,251.4046,-0.00081633,-0.00013246,0.0,0 STARLINK-4176,1 53289U 22086AZ  23110.81492269 -.00013246  00000-0 -81633-3 0  9995,2 53289  53.2168 230.2856 0001393 108.7097 251.4046 15.08810027 42154,6917.972,95.439,540.801,538.873,0.0
53289.0,STARLINK-4176,PAYLOAD,2023-04-21 19:24:17,15.08855057,0.0001474,53.2161,225.8285,91.8607,268.2554,0.0019946,0.00031612,0.0,0 STARLINK-4176,1 53289U 22086AZ  23111.80853778  .00031612  00000-0  19946-2 0  9993,2 53289  53.2161 225.8285 0001474  91.8607 268.2554 15.08855057 42143,6917.834,95.437,540.719,538.68,0.0
53289.0,STARLINK-4176,PAYLOAD,2023-04-22 08:07:22,15.08866544,0.000161,53.2151,223.4485,94.9896,265.128,0.0013861,0.00021857,0.0,0 STARLINK-4176,1 53289U 22086AZ  23112.33845295  .00021857  00000-0  13861-2 0  9997,2 53289  53.2151 223.4485 0001610  94.9896 265.1280 15.08866544 42385,6917.799,95.436,540.778,538.55,0.0
53289.0,STARLINK-4176,PAYLOAD,2023-04-22 17:39:40,15.08891115,0.0001459,53.2159,221.6646,95.823,264.2929,0.0018894,0.00029952,0.0,0 STARLINK-4176,1 53289U 22086AZ  23112.73588185  .00029952  00000-0  18894-2 0  9998,2 53289  53.2159 221.6646 0001459  95.8230 264.2929 15.08891115 42444,6917.724,95.434,540.598,538.58,0.0
